[
    {
        "Altitude(m)": 553909.5505349524,
        "Argument of Periapsis(deg)": 0.033114955553567506,
        "Eccentricity": 0.0,
        "Inclination(deg)": 53.0,
        "Latitude(deg)": 21.196271259240746,
        "Longitude(deg)": 157.90779364468335,
        "Mean Anomaly(deg)": 26.821664337887906,
        "RAAN(deg)": 244.95071684264008,
        "Satellite Name": "Starlink Shell 1 1098",
        "Satellite Number": 1098,
        "Semi-Major Axis(m)": 6931778.249405717,
        "Time(s)": 950
    },
    {
        "Altitude(m)": 553954.8720093428,
        "Argument of Periapsis(deg)": 0.03346353403307874,
        "Eccentricity": 0.0,
        "Inclination(deg)": 53.0,
        "Latitude(deg)": 21.67745758795208,
        "Longitude(deg)": 158.30099028997168,
        "Mean Anomaly(deg)": 27.448495541444654,
        "RAAN(deg)": 244.95019807256264,
        "Satellite Name": "Starlink Shell 1 1098",
        "Satellite Number": 1098,
        "Semi-Major Axis(m)": 6931778.249405717,
        "Time(s)": 960
    },
    {
        "Altitude(m)": 554002.1312881461,
        "Argument of Periapsis(deg)": 0.03381211251258998,
        "Eccentricity": 0.0,
        "Inclination(deg)": 53.0,
        "Latitude(deg)": 22.15747284486988,
        "Longitude(deg)": 158.6970758881333,
        "Mean Anomaly(deg)": 28.0753267450013,
        "RAAN(deg)": 244.94967930248518,
        "Satellite Name": "Starlink Shell 1 1098",
        "Satellite Number": 1098,
        "Semi-Major Axis(m)": 6931778.249405717,
        "Time(s)": 970
    },
    {
        "Altitude(m)": 554051.2846154181,
        "Argument of Periapsis(deg)": 0.034160690992101214,
        "Eccentricity": 0.0,
        "Inclination(deg)": 53.0,
        "Latitude(deg)": 22.63628071581734,
        "Longitude(deg)": 159.09613351177157,
        "Mean Anomaly(deg)": 28.702157948557996,
        "RAAN(deg)": 244.9491605324077,
        "Satellite Name": "Starlink Shell 1 1098",
        "Satellite Number": 1098,
        "Semi-Major Axis(m)": 6931778.249405717,
        "Time(s)": 980
    },
    {
        "Altitude(m)": 554102.2874483304,
        "Argument of Periapsis(deg)": 0.034509269471612446,
        "Eccentricity": 0.0,
        "Inclination(deg)": 53.0,
        "Latitude(deg)": 23.113844185566172,
        "Longitude(deg)": 159.4982478978833,
        "Mean Anomaly(deg)": 29.328989152114843,
        "RAAN(deg)": 244.94864176233023,
        "Satellite Name": "Starlink Shell 1 1098",
        "Satellite Number": 1098,
        "Semi-Major Axis(m)": 6931778.249405717,
        "Time(s)": 990
    }
]